STARLINK-3838           
1 52352U 22045X   25303.05981959  .00000502  00000+0  49625-4 0  9995
2 52352  53.2175  65.5396 0001322  87.0746 273.0398 15.08843592196065
STARLINK-3807           
1 52353U 22045Y   25303.06717373  .00000885  00000+0  73630-4 0  9991
2 52353  53.2144  65.5061 0000794  93.1289 266.9794 15.08851965196067
STARLINK-3877           
1 52355U 22045AA  25303.06351101  .00001010  00000+0  81562-4 0  9990
2 52355  53.2251  65.5213 0003130  82.8891 277.2457 15.08839888196069
STARLINK-3801           
1 52356U 22045AB  25302.65503225 -.00000531  00000+0 -15297-4 0  9992
2 52356  53.2184  67.3844 0001346  89.4605 270.6541 15.08835135196004
STARLINK-3821           
1 52357U 22045AC  25303.05614480  .00000919  00000+0  75806-4 0  9994
2 52357  53.2173  65.5549 0001520  90.3845 269.7321 15.08834471196069
STARLINK-3837           
1 52358U 22045AD  25302.64030449 -.00001193  00000+0 -56886-4 0  9990
2 52358  53.2162  67.4222 0001256  86.4215 273.6921 15.08836225196003
STARLINK-3853           
1 52359U 22045AE  25303.05342634  .00001777  00000+0  12968-3 0  9997
2 52359  53.2160  65.5777 0001181  73.7825 286.3297 15.08844699196066
STARLINK-3728           
1 52361U 22045AG  25302.64766100  .00001267  00000+0  97678-4 0  9998
2 52361  53.2147  67.3895 0001271  82.6778 277.4359 15.08841449196005
STARLINK-3848           
1 52362U 22045AH  25303.02762432  .00000537  00000+0  51833-4 0  9998
2 52362  53.2158  55.6823 0001254  89.6927 270.4209 15.08837441196197
STARLINK-3830           
1 52363U 22045AJ  25303.04142624 -.00002064  00000+0 -11164-3 0  9997
2 52363  53.2173  65.6229 0001350 101.2958 258.8186 15.08833640196065
STARLINK-3820           
1 52364U 22045AK  25303.01289163 -.00001332  00000+0 -65605-4 0  9992
2 52364  53.2171  55.6627 0001079  90.1527 269.9589 15.08838268196196
STARLINK-3874           
1 52365U 22045AL  25302.70378544  .00000557  00000+0  53057-4 0  9994
2 52365  53.2165  57.1371 0001519  92.8366 267.2800 15.08843061196141
STARLINK-3808           
1 52366U 22045AM  25303.01658199  .00000855  00000+0  71821-4 0  9997
2 52366  53.2144  55.7348 0001371  93.3340 266.7809 15.08840356196193
STARLINK-3817           
1 52367U 22045AN  25303.02393841 -.00000428  00000+0 -87836-5 0  9991
2 52367  53.2147  55.7005 0001284  94.4067 265.7072 15.08847067196195
STARLINK-3834           
1 52368U 22045AP  25302.74058031  .00000226  00000+0  32263-4 0  9996
2 52368  53.2175  56.9721 0001432  95.4145 264.7011 15.08837899196147
STARLINK-3841           
1 52369U 22045AQ  25303.02020894  .00006988  00000+0  45610-3 0  9995
2 52369  53.2189  55.7143 0000415  27.8114 332.2900 15.08887349196191
