[{"OBJECT_NAME":"STARLINK-3838","OBJECT_ID":"2022-045X","EPOCH":"2025-10-30T01:26:08.412576","MEAN_MOTION":15.08843592,"ECCENTRICITY":0.00013221,"INCLINATION":53.2175,"RA_OF_ASC_NODE":65.5396,"ARG_OF_PERICENTER":87.0746,"MEAN_ANOMALY":273.0398,"EPHEMERIS_TYPE":0,"CLASSIFICATION_TYPE":"U","NORAD_CAT_ID":52352,"ELEMENT_SET_NO":999,"REV_AT_EPOCH":19606,"BSTAR":4.9625285e-5,"MEAN_MOTION_DOT":5.02e-6,"MEAN_MOTION_DDOT":0},{"OBJECT_NAME":"STARLINK-3807","OBJECT_ID":"2022-045Y","EPOCH":"2025-10-30T01:36:43.810272","MEAN_MOTION":15.08851965,"ECCENTRICITY":7.949e-5,"INCLINATION":53.2144,"RA_OF_ASC_NODE":65.5061,"ARG_OF_PERICENTER":93.1289,"MEAN_ANOMALY":266.9794,"EPHEMERIS_TYPE":0,"CLASSIFICATION_TYPE":"U","NORAD_CAT_ID":52353,"ELEMENT_SET_NO":999,"REV_AT_EPOCH":19606,"BSTAR":7.363045e-5,"MEAN_MOTION_DOT":8.85e-6,"MEAN_MOTION_DDOT":0},{"OBJECT_NAME":"STARLINK-3877","OBJECT_ID":"2022-045AA","EPOCH":"2025-10-30T01:31:27.351264","MEAN_MOTION":15.08839888,"ECCENTRICITY":0.00031301,"INCLINATION":53.2251,"RA_OF_ASC_NODE":65.5213,"ARG_OF_PERICENTER":82.8891,"MEAN_ANOMALY":277.2457,"EPHEMERIS_TYPE":0,"CLASSIFICATION_TYPE":"U","NORAD_CAT_ID":52355,"ELEMENT_SET_NO":999,"REV_AT_EPOCH":19606,"BSTAR":8.1561813e-5,"MEAN_MOTION_DOT":1.01e-5,"MEAN_MOTION_DDOT":0},{"OBJECT_NAME":"STARLINK-3801","OBJECT_ID":"2022-045AB","EPOCH":"2025-10-29T15:43:14.786400","MEAN_MOTION":15.08835135,"ECCENTRICITY":0.00013469,"INCLINATION":53.2184,"RA_OF_ASC_NODE":67.3844,"ARG_OF_PERICENTER":89.4605,"MEAN_ANOMALY":270.6541,"EPHEMERIS_TYPE":0,"CLASSIFICATION_TYPE":"U","NORAD_CAT_ID":52356,"ELEMENT_SET_NO":999,"REV_AT_EPOCH":19600,"BSTAR":-1.5296678e-5,"MEAN_MOTION_DOT":-5.31e-6,"MEAN_MOTION_DDOT":0},{"OBJECT_NAME":"STARLINK-3821","OBJECT_ID":"2022-045AC","EPOCH":"2025-10-30T01:20:50.910720","MEAN_MOTION":15.08834471,"ECCENTRICITY":0.00015201,"INCLINATION":53.2173,"RA_OF_ASC_NODE":65.5549,"ARG_OF_PERICENTER":90.3845,"MEAN_ANOMALY":269.7321,"EPHEMERIS_TYPE":0,"CLASSIFICATION_TYPE":"U","NORAD_CAT_ID":52357,"ELEMENT_SET_NO":999,"REV_AT_EPOCH":19606,"BSTAR":7.5806413e-5,"MEAN_MOTION_DOT":9.19e-6,"MEAN_MOTION_DDOT":0},{"OBJECT_NAME":"STARLINK-3837","OBJECT_ID":"2022-045AD","EPOCH":"2025-10-29T15:22:02.307936","MEAN_MOTION":15.08836225,"ECCENTRICITY":0.00012563,"INCLINATION":53.2162,"RA_OF_ASC_NODE":67.4222,"ARG_OF_PERICENTER":86.4215,"MEAN_ANOMALY":273.6921,"EPHEMERIS_TYPE":0,"CLASSIFICATION_TYPE":"U","NORAD_CAT_ID":52358,"ELEMENT_SET_NO":999,"REV_AT_EPOCH":19600,"BSTAR":-5.6886266e-5,"MEAN_MOTION_DOT":-1.193e-5,"MEAN_MOTION_DDOT":0},{"OBJECT_NAME":"STARLINK-3853","OBJECT_ID":"2022-045AE","EPOCH":"2025-10-30T01:16:56.035776","MEAN_MOTION":15.08844699,"ECCENTRICITY":0.00011814,"INCLINATION":53.216,"RA_OF_ASC_NODE":65.5777,"ARG_OF_PERICENTER":73.7825,"MEAN_ANOMALY":286.3297,"EPHEMERIS_TYPE":0,"CLASSIFICATION_TYPE":"U","NORAD_CAT_ID":52359,"ELEMENT_SET_NO":999,"REV_AT_EPOCH":19606,"BSTAR":0.00012967914,"MEAN_MOTION_DOT":1.777e-5,"MEAN_MOTION_DDOT":0},{"OBJECT_NAME":"STARLINK-3728","OBJECT_ID":"2022-045AG","EPOCH":"2025-10-29T15:32:37.910400","MEAN_MOTION":15.08841449,"ECCENTRICITY":0.00012718,"INCLINATION":53.2147,"RA_OF_ASC_NODE":67.3895,"ARG_OF_PERICENTER":82.6778,"MEAN_ANOMALY":277.4359,"EPHEMERIS_TYPE":0,"CLASSIFICATION_TYPE":"U","NORAD_CAT_ID":52361,"ELEMENT_SET_NO":999,"REV_AT_EPOCH":19600,"BSTAR":9.767756e-5,"MEAN_MOTION_DOT":1.267e-5,"MEAN_MOTION_DDOT":0},{"OBJECT_NAME":"STARLINK-3848","OBJECT_ID":"2022-045AH","EPOCH":"2025-10-30T00:39:46.741248","MEAN_MOTION":15.08837441,"ECCENTRICITY":0.00012542,"INCLINATION":53.2158,"RA_OF_ASC_NODE":55.6823,"ARG_OF_PERICENTER":89.6927,"MEAN_ANOMALY":270.4209,"EPHEMERIS_TYPE":0,"CLASSIFICATION_TYPE":"U","NORAD_CAT_ID":52362,"ELEMENT_SET_NO":999,"REV_AT_EPOCH":19619,"BSTAR":5.1833417e-5,"MEAN_MOTION_DOT":5.37e-6,"MEAN_MOTION_DDOT":0},{"OBJECT_NAME":"STARLINK-3830","OBJECT_ID":"2022-045AJ","EPOCH":"2025-10-30T00:59:39.227136","MEAN_MOTION":15.0883364,"ECCENTRICITY":0.00013501,"INCLINATION":53.2173,"RA_OF_ASC_NODE":65.6229,"ARG_OF_PERICENTER":101.2958,"MEAN_ANOMALY":258.8186,"EPHEMERIS_TYPE":0,"CLASSIFICATION_TYPE":"U","NORAD_CAT_ID":52363,"ELEMENT_SET_NO":999,"REV_AT_EPOCH":19606,"BSTAR":-0.00011164268,"MEAN_MOTION_DOT":-2.064e-5,"MEAN_MOTION_DDOT":0},{"OBJECT_NAME":"STARLINK-3820","OBJECT_ID":"2022-045AK","EPOCH":"2025-10-30T00:18:33.836832","MEAN_MOTION":15.08838268,"ECCENTRICITY":0.00010799,"INCLINATION":53.2171,"RA_OF_ASC_NODE":55.6627,"ARG_OF_PERICENTER":90.1527,"MEAN_ANOMALY":269.9589,"EPHEMERIS_TYPE":0,"CLASSIFICATION_TYPE":"U","NORAD_CAT_ID":52364,"ELEMENT_SET_NO":999,"REV_AT_EPOCH":19619,"BSTAR":-6.5605007e-5,"MEAN_MOTION_DOT":-1.332e-5,"MEAN_MOTION_DDOT":0},{"OBJECT_NAME":"STARLINK-3874","OBJECT_ID":"2022-045AL","EPOCH":"2025-10-29T16:53:27.062016","MEAN_MOTION":15.08843061,"ECCENTRICITY":0.0001519,"INCLINATION":53.2165,"RA_OF_ASC_NODE":57.1371,"ARG_OF_PERICENTER":92.8366,"MEAN_ANOMALY":267.28,"EPHEMERIS_TYPE":0,"CLASSIFICATION_TYPE":"U","NORAD_CAT_ID":52365,"ELEMENT_SET_NO":999,"REV_AT_EPOCH":19614,"BSTAR":5.3056733e-5,"MEAN_MOTION_DOT":5.57e-6,"MEAN_MOTION_DDOT":0},{"OBJECT_NAME":"STARLINK-3808","OBJECT_ID":"2022-045AM","EPOCH":"2025-10-30T00:23:52.683936","MEAN_MOTION":15.08840356,"ECCENTRICITY":0.00013718,"INCLINATION":53.2144,"RA_OF_ASC_NODE":55.7348,"ARG_OF_PERICENTER":93.334,"MEAN_ANOMALY":266.7809,"EPHEMERIS_TYPE":0,"CLASSIFICATION_TYPE":"U","NORAD_CAT_ID":52366,"ELEMENT_SET_NO":999,"REV_AT_EPOCH":19619,"BSTAR":7.1820957e-5,"MEAN_MOTION_DOT":8.55e-6,"MEAN_MOTION_DDOT":0},{"OBJECT_NAME":"STARLINK-3817","OBJECT_ID":"2022-045AN","EPOCH":"2025-10-30T00:34:28.278624","MEAN_MOTION":15.08847067,"ECCENTRICITY":0.00012845,"INCLINATION":53.2147,"RA_OF_ASC_NODE":55.7005,"ARG_OF_PERICENTER":94.4067,"MEAN_ANOMALY":265.7072,"EPHEMERIS_TYPE":0,"CLASSIFICATION_TYPE":"U","NORAD_CAT_ID":52367,"ELEMENT_SET_NO":999,"REV_AT_EPOCH":19619,"BSTAR":-8.783568e-6,"MEAN_MOTION_DOT":-4.28e-6,"MEAN_MOTION_DDOT":0},{"OBJECT_NAME":"STARLINK-3834","OBJECT_ID":"2022-045AP","EPOCH":"2025-10-29T17:46:26.138784","MEAN_MOTION":15.08837899,"ECCENTRICITY":0.00014322,"INCLINATION":53.2175,"RA_OF_ASC_NODE":56.9721,"ARG_OF_PERICENTER":95.4145,"MEAN_ANOMALY":264.7011,"EPHEMERIS_TYPE":0,"CLASSIFICATION_TYPE":"U","NORAD_CAT_ID":52368,"ELEMENT_SET_NO":999,"REV_AT_EPOCH":19614,"BSTAR":3.2263315e-5,"MEAN_MOTION_DOT":2.26e-6,"MEAN_MOTION_DDOT":0},{"OBJECT_NAME":"STARLINK-3841","OBJECT_ID":"2022-045AQ","EPOCH":"2025-10-30T00:29:06.052416","MEAN_MOTION":15.08887349,"ECCENTRICITY":4.151e-5,"INCLINATION":53.2189,"RA_OF_ASC_NODE":55.7143,"ARG_OF_PERICENTER":27.8114,"MEAN_ANOMALY":332.29,"EPHEMERIS_TYPE":0,"CLASSIFICATION_TYPE":"U","NORAD_CAT_ID":52369,"ELEMENT_SET_NO":999,"REV_AT_EPOCH":19619,"BSTAR":0.00045609909,"MEAN_MOTION_DOT":6.988e-5,"MEAN_MOTION_DDOT":0}]
